{"type": "FeatureCollection", "features": [ {"type": "Feature", "properties": {"norad_id": 66643, "name": "STARLINK-35918", "group": "last-30-days", "lat": 52.84267587462263, "lon": -66.26744547530356, "alt_km": 343.75357483795597, "timestamp": "2025-12-07T14:37:03.995312+00:00", "meta": {"OBJECT_NAME": "STARLINK-35918", "OBJECT_ID": "2025-271AC", "EPOCH": "2025-12-06T22:00:01.999584", "MEAN_MOTION": 15.74597337, "ECCENTRICITY": 0.00012356, "INCLINATION": 53.1576, "RA_OF_ASC_NODE": 215.5356, "ARG_OF_PERICENTER": 79.0845, "MEAN_ANOMALY": 41.4228, "EPHEMERIS_TYPE": 0, "CLASSIFICATION_TYPE": "U", "NORAD_CAT_ID": 66643, "ELEMENT_SET_NO": 999, "REV_AT_EPOCH": 330, "BSTAR": -0.010557394, "MEAN_MOTION_DOT": -0.01397232, "MEAN_MOTION_DDOT": 0}, "tle": {"line1": "1 66643U 25271AC  25340.91668981 -.01397232  00000+0 -10557-1 0  9991", "line2": "2 66643  53.1576 215.5356 0001235  79.0845  41.4228 15.74597337  3303"}}, "geometry": {"type": "Point", "coordinates": [-66.26744547530356, 52.84267587462263]}}, {"type": "Feature", "properties": {"norad_id": 66644, "name": "STARLINK-35938", "group": "last-30-days", "lat": 53.02316461325614, "lon": -63.11407011091915, "alt_km": 344.13829768486903, "timestamp": "2025-12-07T14:37:03.995324+00:00", "meta": {"OBJECT_NAME": "STARLINK-35938", "OBJECT_ID": "2025-271AD", "EPOCH": "2025-12-06T22:00:01.999584", "MEAN_MOTION": 15.74602024, "ECCENTRICITY": 6.99e-05, "INCLINATION": 53.1572, "RA_OF_ASC_NODE": 215.5312, "ARG_OF_PERICENTER": 82.7774, "MEAN_ANOMALY": 39.6482, "EPHEMERIS_TYPE": 0, "CLASSIFICATION_TYPE": "U", "NORAD_CAT_ID": 66644, "ELEMENT_SET_NO": 999, "REV_AT_EPOCH": 330, "BSTAR": -0.010642933, "MEAN_MOTION_DOT": -0.01407227, "MEAN_MOTION_DDOT": 0}, "tle": {"line1": "1 66644U 25271AD  25340.91668981 -.01407227  00000+0 -10643-1 0  9994", "line2": "2 66644  53.1572 215.5312 0000699  82.7774  39.6482 15.74602024  3308"}}, "geometry": {"type": "Point", "coordinates": [-63.11407011091915, 53.02316461325614]}}, {"type": "Feature", "properties": {"norad_id": 66645, "name": "SHENZHOU-22", "group": "last-30-days", "lat": 38.988313481313064, "lon": 161.41390348371485, "alt_km": 387.61106806557837, "timestamp": "2025-12-07T14:37:03.995335+00:00", "meta": {"OBJECT_NAME": "SHENZHOU-22", "OBJECT_ID": "2025-272A", "EPOCH": "2025-12-06T21:14:35.052288", "MEAN_MOTION": 15.58811356, "ECCENTRICITY": 0.00094534, "INCLINATION": 41.4683, "RA_OF_ASC_NODE": 52.2413, "ARG_OF_PERICENTER": 344.5349, "MEAN_ANOMALY": 15.5199, "EPHEMERIS_TYPE": 0, "CLASSIFICATION_TYPE": "U", "NORAD_CAT_ID": 66645, "ELEMENT_SET_NO": 999, "REV_AT_EPOCH": 26300, "BSTAR": 0.00035334049, "MEAN_MOTION_DOT": 0.00027906, "MEAN_MOTION_DDOT": 0}, "tle": {"line1": "1 66645U 25272A   25340.88512792  .00027906  00000+0  35334-3 0  9995", "line2": "2 66645  41.4683  52.2413 0009453 344.5349  15.5199 15.58811356263009"}}, "geometry": {"type": "Point", "coordinates": [161.41390348371485, 38.988313481313064]}}, {"type": "Feature", "properties": {"norad_id": 66646, "name": "CZ-2F R/B", "group": "last-30-days", "lat": 24.82205831484667, "lon": 73.12339921348902, "alt_km": 150.188594461124, "timestamp": "2025-12-07T14:37:03.995345+00:00", "meta": {"OBJECT_NAME": "CZ-2F R/B", "OBJECT_ID": "2025-272B", "EPOCH": "2025-12-07T13:00:15.028704", "MEAN_MOTION": 16.47453798, "ECCENTRICITY": 0.002214, "INCLINATION": 41.4535, "RA_OF_ASC_NODE": 41.9834, "ARG_OF_PERICENTER": 229.6731, "MEAN_ANOMALY": 130.2205, "EPHEMERIS_TYPE": 0, "CLASSIFICATION_TYPE": "U", "NORAD_CAT_ID": 66646, "ELEMENT_SET_NO": 999, "REV_AT_EPOCH": 200, "BSTAR": 0.00015075, "MEAN_MOTION_DOT": 0.11903621, "MEAN_MOTION_DDOT": 8.0762e-06}, "tle": {"line1": "1 66646U 25272B   25341.54184061  .11903621  80762-5  15075-3 0  9992", "line2": "2 66646  41.4535  41.9834 0022140 229.6731 130.2205 16.47453798  2009"}}, "geometry": {"type": "Point", "coordinates": [73.12339921348902, 24.82205831484667]}}, {"type": "Feature", "properties": {"norad_id": 66647, "name": "COSMOS 2597 (RODNIK-S 22)", "group": "last-30-days", "lat": -40.34301147704502, "lon": 116.06075738706788, "alt_km": 1503.699378258495, "timestamp": "2025-12-07T14:37:03.995355+00:00", "meta": {"OBJECT_NAME": "COSMOS 2597 (RODNIK-S 22)", "OBJECT_ID": "2025-273A", "EPOCH": "2025-12-06T21:57:54.802368", "MEAN_MOTION": 12.41951178, "ECCENTRICITY": 0.00080235, "INCLINATION": 82.4981, "RA_OF_ASC_NODE": 290.0662, "ARG_OF_PERICENTER": 302.9826, "MEAN_ANOMALY": 57.0481, "EPHEMERIS_TYPE": 0, "CLASSIFICATION_TYPE": "U", "NORAD_CAT_ID": 66647, "ELEMENT_SET_NO": 999, "REV_AT_EPOCH": 141, "BSTAR": 0.00012372964, "MEAN_MOTION_DOT": 2.7e-07, "MEAN_MOTION_DDOT": 0}, "tle": {"line1": "1 66647U 25273A   25340.91521762  .00000027  00000+0  12373-3 0  9992", "line2": "2 66647  82.4981 290.0662 0008023 302.9826  57.0481 12.41951178  1411"}}, "geometry": {"type": "Point", "coordinates": [116.06075738706788, -40.34301147704502]}}, {"type": "Feature", "properties": {"norad_id": 66648, "name": "COSMOS 2598 (RODNIK-S 23)", "group": "last-30-days", "lat": -56.49784106109198, "lon": 121.11432235460599, "alt_km": 1496.3919628281037, "timestamp": "2025-12-07T14:37:03.995368+00:00", "meta": {"OBJECT_NAME": "COSMOS 2598 (RODNIK-S 23)", "OBJECT_ID": "2025-273B", "EPOCH": "2025-12-06T21:53:20.641344", "MEAN_MOTION": 12.42862084, "ECCENTRICITY": 0.00072477, "INCLINATION": 82.5028, "RA_OF_ASC_NODE": 290.0737, "ARG_OF_PERICENTER": 265.3772, "MEAN_ANOMALY": 94.648, "EPHEMERIS_TYPE": 0, "CLASSIFICATION_TYPE": "U", "NORAD_CAT_ID": 66648, "ELEMENT_SET_NO": 999, "REV_AT_EPOCH": 141, "BSTAR": -7.266063e-06, "MEAN_MOTION_DOT": 9e-08, "MEAN_MOTION_DDOT": 0}, "tle": {"line1": "1 66648U 25273B   25340.91204446  .00000009  00000+0 -72661-5 0  9999", "line2": "2 66648  82.5028 290.0737 0007247 265.3772  94.6480 12.42862084  1411"}}, "geometry": {"type": "Point", "coordinates": [121.11432235460599, -56.49784106109198]}}, {"type": "Feature", "properties": {"norad_id": 66649, "name": "COSMOS 2599 (RODNIK-S 24)", "group": "last-30-days", "lat": -28.495150779504684, "lon": 113.74846256165448, "alt_km": 1506.6426630669812, "timestamp": "2025-12-07T14:37:03.995378+00:00", "meta": {"OBJECT_NAME": "COSMOS 2599 (RODNIK-S 24)", "OBJECT_ID": "2025-273C", "EPOCH": "2025-12-06T22:01:33.772800", "MEAN_MOTION": 12.41671814, "ECCENTRICITY": 0.00082435, "INCLINATION": 82.5021, "RA_OF_ASC_NODE": 290.0779, "ARG_OF_PERICENTER": 313.4418, "MEAN_ANOMALY": 46.5975, "EPHEMERIS_TYPE": 0, "CLASSIFICATION_TYPE": "U", "NORAD_CAT_ID": 66649, "ELEMENT_SET_NO": 999, "REV_AT_EPOCH": 141, "BSTAR": 4.6176361e-05, "MEAN_MOTION_DOT": 1.6e-07, "MEAN_MOTION_DDOT": 0}, "tle": {"line1": "1 66649U 25273C   25340.91775200  .00000016  00000+0  46176-4 0  9999", "line2": "2 66649  82.5021 290.0779 0008243 313.4418  46.5975 12.41671814  1413"}}, "geometry": {"type": "Point", "coordinates": [113.74846256165448, -28.495150779504684]}}, {"type": "Feature", "properties": {"norad_id": 66650, "name": "BEE-1000", "group": "last-30-days", "lat": 61.43189801329214, "lon": 103.35328367280749, "alt_km": 593.439323317516, "timestamp": "2025-12-07T14:37:03.995388+00:00", "meta": {"OBJECT_NAME": "BEE-1000", "OBJECT_ID": "2025-274A", "EPOCH": "2025-12-06T18:46:20.231904", "MEAN_MOTION": 14.91630145, "ECCENTRICITY": 0.00104591, "INCLINATION": 97.7385, "RA_OF_ASC_NODE": 268.0797, "ARG_OF_PERICENTER": 274.4491, "MEAN_ANOMALY": 85.5533, "EPHEMERIS_TYPE": 0, "CLASSIFICATION_TYPE": "U", "NORAD_CAT_ID": 66650, "ELEMENT_SET_NO": 999, "REV_AT_EPOCH": 151, "BSTAR": 0.00028243765, "MEAN_MOTION_DOT": 2.783e-05, "MEAN_MOTION_DDOT": 0}, "tle": {"line1": "1 66650U 25274A   25340.78217861  .00002783  00000+0  28244-3 0  9999", "line2": "2 66650  97.7385 268.0797 0010459 274.4491  85.5533 14.91630145  1513"}}, "geometry": {"type": "Point", "coordinates": [103.35328367280749, 61.43189801329214]}}, {"type": "Feature", "properties": {"norad_id": 66651, "name": "2025-274B", "group": "last-30-days", "lat": 58.76895086261216, "lon": 101.85102788526481, "alt_km": 593.3968745702023, "timestamp": "2025-12-07T14:37:03.995399+00:00", "meta": {"OBJECT_NAME": "2025-274B", "OBJECT_ID": "2025-274B", "EPOCH": "2025-12-06T18:45:40.493088", "MEAN_MOTION": 14.91729352, "ECCENTRICITY": 0.00107337, "INCLINATION": 97.7387, "RA_OF_ASC_NODE": 268.0793, "ARG_OF_PERICENTER": 274.0967, "MEAN_ANOMALY": 85.9024, "EPHEMERIS_TYPE": 0, "CLASSIFICATION_TYPE": "U", "NORAD_CAT_ID": 66651, "ELEMENT_SET_NO": 999, "REV_AT_EPOCH": 151, "BSTAR": 0.00062427055, "MEAN_MOTION_DOT": 6.238e-05, "MEAN_MOTION_DDOT": 0}, "tle": {"line1": "1 66651U 25274B   25340.78171867  .00006238  00000+0  62427-3 0  9995", "line2": "2 66651  97.7387 268.0793 0010733 274.0967  85.9024 14.91729352  1519"}}, "geometry": {"type": "Point", "coordinates": [101.85102788526481, 58.76895086261216]}}, {"type": "Feature", "properties": {"norad_id": 66652, "name": "2025-274C", "group": "last-30-days", "lat": 53.28268372827687, "lon": 99.40024866706236, "alt_km": 593.5738791296772, "timestamp": "2025-12-07T14:37:03.995409+00:00", "meta": {"OBJECT_NAME": "2025-274C", "OBJECT_ID": "2025-274C", "EPOCH": "2025-12-06T18:44:15.825408", "MEAN_MOTION": 14.91857241, "ECCENTRICITY": 0.00104263, "INCLINATION": 97.7391, "RA_OF_ASC_NODE": 268.0813, "ARG_OF_PERICENTER": 280.9539, "MEAN_ANOMALY": 79.0506, "EPHEMERIS_TYPE": 0, "CLASSIFICATION_TYPE": "U", "NORAD_CAT_ID": 66652, "ELEMENT_SET_NO": 999, "REV_AT_EPOCH": 151, "BSTAR": 0.00042219434, "MEAN_MOTION_DOT": 4.213e-05, "MEAN_MOTION_DDOT": 0}, "tle": {"line1": "1 66652U 25274C   25340.78073872  .00004213  00000+0  42219-3 0  9991", "line2": "2 66652  97.7391 268.0813 0010426 280.9539  79.0506 14.91857241  1516"}}, "geometry": {"type": "Point", "coordinates": [99.40024866706236, 53.28268372827687]}}]}